{"type": "FeatureCollection", "features": [ {"type": "Feature", "properties": {"norad_id": 31538, "name": "FENGYUN 1C DEB", "group": "fengyun-1c-debris", "lat": -74.01963427424904, "lon": -1.2994695226605022, "alt_km": 565.4050717325345, "timestamp": "2025-12-06T18:50:10.451364+00:00", "meta": {"OBJECT_NAME": "FENGYUN 1C DEB", "OBJECT_ID": "1999-025BYD", "EPOCH": "2025-11-18T21:37:36.814656", "MEAN_MOTION": 14.96885168, "ECCENTRICITY": 0.00235351, "INCLINATION": 98.2479, "RA_OF_ASC_NODE": 190.2519, "ARG_OF_PERICENTER": 356.6213, "MEAN_ANOMALY": 3.4844, "EPHEMERIS_TYPE": 0, "CLASSIFICATION_TYPE": "U", "NORAD_CAT_ID": 31538, "ELEMENT_SET_NO": 999, "REV_AT_EPOCH": 66646, "BSTAR": 0.0047226763, "MEAN_MOTION_DOT": 0.00054817, "MEAN_MOTION_DDOT": 0}, "tle": {"line1": "1 31538U 99025BYD 25322.90112054  .00054817  00000+0  47227-2 0  9999", "line2": "2 31538  98.2479 190.2519 0023535 356.6213   3.4844 14.96885168666469"}}, "geometry": {"type": "Point", "coordinates": [-1.2994695226605022, -74.01963427424904]}}, {"type": "Feature", "properties": {"norad_id": 31540, "name": "FENGYUN 1C DEB", "group": "fengyun-1c-debris", "lat": 41.39139329370939, "lon": 131.52126220661896, "alt_km": 654.6700391981667, "timestamp": "2025-12-06T18:50:10.451376+00:00", "meta": {"OBJECT_NAME": "FENGYUN 1C DEB", "OBJECT_ID": "1999-025BYF", "EPOCH": "2025-11-30T16:47:12.586272", "MEAN_MOTION": 14.65204922, "ECCENTRICITY": 0.01774904, "INCLINATION": 99.0563, "RA_OF_ASC_NODE": 132.9014, "ARG_OF_PERICENTER": 338.1522, "MEAN_ANOMALY": 21.2175, "EPHEMERIS_TYPE": 0, "CLASSIFICATION_TYPE": "U", "NORAD_CAT_ID": 31540, "ELEMENT_SET_NO": 999, "REV_AT_EPOCH": 98125, "BSTAR": 0.00061965123, "MEAN_MOTION_DOT": 4.14e-05, "MEAN_MOTION_DDOT": 0}, "tle": {"line1": "1 31540U 99025BYF 25334.69945123  .00004140  00000+0  61965-3 0  9992", "line2": "2 31540  99.0563 132.9014 0177490 338.1522  21.2175 14.65204922981257"}}, "geometry": {"type": "Point", "coordinates": [131.52126220661896, 41.39139329370939]}}, {"type": "Feature", "properties": {"norad_id": 31541, "name": "FENGYUN 1C DEB", "group": "fengyun-1c-debris", "lat": -68.56384770242218, "lon": -81.14499044622417, "alt_km": 617.663603521275, "timestamp": "2025-12-06T18:50:10.451388+00:00", "meta": {"OBJECT_NAME": "FENGYUN 1C DEB", "OBJECT_ID": "1999-025BYG", "EPOCH": "2025-12-05T15:31:59.363904", "MEAN_MOTION": 14.68642143, "ECCENTRICITY": 0.00787321, "INCLINATION": 98.9799, "RA_OF_ASC_NODE": 121.357, "ARG_OF_PERICENTER": 262.2463, "MEAN_ANOMALY": 96.9795, "EPHEMERIS_TYPE": 0, "CLASSIFICATION_TYPE": "U", "NORAD_CAT_ID": 31541, "ELEMENT_SET_NO": 999, "REV_AT_EPOCH": 98319, "BSTAR": 0.0022980709, "MEAN_MOTION_DOT": 0.00013971, "MEAN_MOTION_DDOT": 0}, "tle": {"line1": "1 31541U 99025BYG 25339.64721486  .00013971  00000+0  22981-2 0  9993", "line2": "2 31541  98.9799 121.3570 0078732 262.2463  96.9795 14.68642143983192"}}, "geometry": {"type": "Point", "coordinates": [-81.14499044622417, -68.56384770242218]}}, {"type": "Feature", "properties": {"norad_id": 31542, "name": "FENGYUN 1C DEB", "group": "fengyun-1c-debris", "lat": 28.650041168733637, "lon": 30.0270574820528, "alt_km": 847.4898484696341, "timestamp": "2025-12-06T18:50:10.451398+00:00", "meta": {"OBJECT_NAME": "FENGYUN 1C DEB", "OBJECT_ID": "1999-025BYH", "EPOCH": "2025-12-05T20:45:25.858368", "MEAN_MOTION": 14.2273505, "ECCENTRICITY": 0.00471237, "INCLINATION": 98.7313, "RA_OF_ASC_NODE": 33.9318, "ARG_OF_PERICENTER": 226.5367, "MEAN_ANOMALY": 133.1888, "EPHEMERIS_TYPE": 0, "CLASSIFICATION_TYPE": "U", "NORAD_CAT_ID": 31542, "ELEMENT_SET_NO": 999, "REV_AT_EPOCH": 95842, "BSTAR": 0.0023172527, "MEAN_MOTION_DOT": 5.211e-05, "MEAN_MOTION_DDOT": 0}, "tle": {"line1": "1 31542U 99025BYH 25339.86488262  .00005211  00000+0  23173-2 0  9992", "line2": "2 31542  98.7313  33.9318 0047123 226.5367 133.1888 14.22735050958422"}}, "geometry": {"type": "Point", "coordinates": [30.0270574820528, 28.650041168733637]}}, {"type": "Feature", "properties": {"norad_id": 31544, "name": "FENGYUN 1C DEB", "group": "fengyun-1c-debris", "lat": -58.60483897580397, "lon": 46.8741712164071, "alt_km": 829.6228370274121, "timestamp": "2025-12-06T18:50:10.451410+00:00", "meta": {"OBJECT_NAME": "FENGYUN 1C DEB", "OBJECT_ID": "1999-025BYK", "EPOCH": "2025-12-06T02:08:17.483136", "MEAN_MOTION": 14.14307636, "ECCENTRICITY": 0.00315289, "INCLINATION": 98.8299, "RA_OF_ASC_NODE": 31.4307, "ARG_OF_PERICENTER": 288.3389, "MEAN_ANOMALY": 71.4356, "EPHEMERIS_TYPE": 0, "CLASSIFICATION_TYPE": "U", "NORAD_CAT_ID": 31544, "ELEMENT_SET_NO": 999, "REV_AT_EPOCH": 95663, "BSTAR": 0.0011781422, "MEAN_MOTION_DOT": 2.218e-05, "MEAN_MOTION_DDOT": 0}, "tle": {"line1": "1 31544U 99025BYK 25340.08909124  .00002218  00000+0  11781-2 0  9991", "line2": "2 31544  98.8299  31.4307 0031528 288.3389  71.4356 14.14307636956632"}}, "geometry": {"type": "Point", "coordinates": [46.8741712164071, -58.60483897580397]}}, {"type": "Feature", "properties": {"norad_id": 31546, "name": "FENGYUN 1C DEB", "group": "fengyun-1c-debris", "lat": 48.235389733532784, "lon": -119.89176959708229, "alt_km": 746.4562442864026, "timestamp": "2025-12-06T18:50:10.451420+00:00", "meta": {"OBJECT_NAME": "FENGYUN 1C DEB", "OBJECT_ID": "1999-025BYM", "EPOCH": "2025-12-04T10:08:14.309376", "MEAN_MOTION": 14.13030577, "ECCENTRICITY": 0.0146855, "INCLINATION": 98.2458, "RA_OF_ASC_NODE": 48.5851, "ARG_OF_PERICENTER": 160.6333, "MEAN_ANOMALY": 200.0504, "EPHEMERIS_TYPE": 0, "CLASSIFICATION_TYPE": "U", "NORAD_CAT_ID": 31546, "ELEMENT_SET_NO": 999, "REV_AT_EPOCH": 94671, "BSTAR": 0.004829, "MEAN_MOTION_DOT": 9.956e-05, "MEAN_MOTION_DDOT": 0}, "tle": {"line1": "1 31546U 99025BYM 25338.42238784  .00009956  00000+0  48290-2 0  9996", "line2": "2 31546  98.2458  48.5851 0146855 160.6333 200.0504 14.13030577946718"}}, "geometry": {"type": "Point", "coordinates": [-119.89176959708229, 48.235389733532784]}}, {"type": "Feature", "properties": {"norad_id": 31547, "name": "FENGYUN 1C DEB", "group": "fengyun-1c-debris", "lat": 46.78792122778519, "lon": 14.556259152017892, "alt_km": 839.0993253941779, "timestamp": "2025-12-06T18:50:10.451432+00:00", "meta": {"OBJECT_NAME": "FENGYUN 1C DEB", "OBJECT_ID": "1999-025BYN", "EPOCH": "2025-12-06T01:44:17.670336", "MEAN_MOTION": 14.2307234, "ECCENTRICITY": 0.00534444, "INCLINATION": 99.0859, "RA_OF_ASC_NODE": 23.6288, "ARG_OF_PERICENTER": 272.0478, "MEAN_ANOMALY": 87.458, "EPHEMERIS_TYPE": 0, "CLASSIFICATION_TYPE": "U", "NORAD_CAT_ID": 31547, "ELEMENT_SET_NO": 999, "REV_AT_EPOCH": 63922, "BSTAR": 0.0023723325, "MEAN_MOTION_DOT": 5.385e-05, "MEAN_MOTION_DDOT": 0}, "tle": {"line1": "1 31547U 99025BYN 25340.07242674  .00005385  00000+0  23723-2 0  9990", "line2": "2 31547  99.0859  23.6288 0053444 272.0478  87.4580 14.23072340639221"}}, "geometry": {"type": "Point", "coordinates": [14.556259152017892, 46.78792122778519]}}, {"type": "Feature", "properties": {"norad_id": 31550, "name": "FENGYUN 1C DEB", "group": "fengyun-1c-debris", "lat": -36.31905881798135, "lon": 154.2451132872426, "alt_km": 725.0005755647053, "timestamp": "2025-12-06T18:50:10.451465+00:00", "meta": {"OBJECT_NAME": "FENGYUN 1C DEB", "OBJECT_ID": "1999-025BYR", "EPOCH": "2025-12-06T06:08:31.308288", "MEAN_MOTION": 14.40148558, "ECCENTRICITY": 0.0190348, "INCLINATION": 98.3108, "RA_OF_ASC_NODE": 339.8996, "ARG_OF_PERICENTER": 292.4943, "MEAN_ANOMALY": 65.6192, "EPHEMERIS_TYPE": 0, "CLASSIFICATION_TYPE": "U", "NORAD_CAT_ID": 31550, "ELEMENT_SET_NO": 999, "REV_AT_EPOCH": 65361, "BSTAR": 0.0015509046, "MEAN_MOTION_DOT": 6.021e-05, "MEAN_MOTION_DDOT": 0}, "tle": {"line1": "1 31550U 99025BYR 25340.25591792  .00006021  00000+0  15509-2 0  9993", "line2": "2 31550  98.3108 339.8996 0190348 292.4943  65.6192 14.40148558653610"}}, "geometry": {"type": "Point", "coordinates": [154.2451132872426, -36.31905881798135]}}, {"type": "Feature", "properties": {"norad_id": 31552, "name": "FENGYUN 1C DEB", "group": "fengyun-1c-debris", "lat": 72.82265651454556, "lon": 73.14685997119447, "alt_km": 683.478892902609, "timestamp": "2025-12-06T18:50:10.451492+00:00", "meta": {"OBJECT_NAME": "FENGYUN 1C DEB", "OBJECT_ID": "1999-025BYT", "EPOCH": "2025-12-06T06:52:00.154560", "MEAN_MOTION": 14.45487948, "ECCENTRICITY": 0.00859507, "INCLINATION": 98.6228, "RA_OF_ASC_NODE": 102.0391, "ARG_OF_PERICENTER": 40.9261, "MEAN_ANOMALY": 319.834, "EPHEMERIS_TYPE": 0, "CLASSIFICATION_TYPE": "U", "NORAD_CAT_ID": 31552, "ELEMENT_SET_NO": 999, "REV_AT_EPOCH": 95783, "BSTAR": 0.0050652085, "MEAN_MOTION_DOT": 0.00018685, "MEAN_MOTION_DDOT": 0}, "tle": {"line1": "1 31552U 99025BYT 25340.28611290  .00018685  00000+0  50652-2 0  9991", "line2": "2 31552  98.6228 102.0391 0085950  40.9261 319.8340 14.45487948957832"}}, "geometry": {"type": "Point", "coordinates": [73.14685997119447, 72.82265651454556]}}, {"type": "Feature", "properties": {"norad_id": 31553, "name": "FENGYUN 1C DEB", "group": "fengyun-1c-debris", "lat": -45.09322262428833, "lon": 44.48875071922349, "alt_km": 819.5498013389397, "timestamp": "2025-12-06T18:50:10.451503+00:00", "meta": {"OBJECT_NAME": "FENGYUN 1C DEB", "OBJECT_ID": "1999-025BYU", "EPOCH": "2025-12-06T02:24:01.260576", "MEAN_MOTION": 14.30070178, "ECCENTRICITY": 0.00309475, "INCLINATION": 99.0047, "RA_OF_ASC_NODE": 34.6267, "ARG_OF_PERICENTER": 121.0339, "MEAN_ANOMALY": 269.6361, "EPHEMERIS_TYPE": 0, "CLASSIFICATION_TYPE": "U", "NORAD_CAT_ID": 31553, "ELEMENT_SET_NO": 999, "REV_AT_EPOCH": 95815, "BSTAR": 0.0028858478, "MEAN_MOTION_DOT": 7.454e-05, "MEAN_MOTION_DDOT": 0}, "tle": {"line1": "1 31553U 99025BYU 25340.10001459  .00007454  00000+0  28858-2 0  9998", "line2": "2 31553  99.0047  34.6267 0030947 121.0339 269.6361 14.30070178958150"}}, "geometry": {"type": "Point", "coordinates": [44.48875071922349, -45.09322262428833]}}]}